HIERARCHY
ROOT Root
{
  OFFSET 0.0 0.0 0.0
  CHANNELS 6 Xposition Yposition Zposition Zrotation Yrotation Xrotation
  JOINT Hips
  {
    OFFSET 0.0 100.0 0.0
    CHANNELS 6 Xposition Yposition Zposition Zrotation Yrotation Xrotation
    JOINT Spine1
    {
      OFFSET 5.003913 -0.037094 -0.013727
      CHANNELS 3 Zrotation Yrotation Xrotation
      JOINT Spine2
      {
        OFFSET 7.125363 -1e-06 0.0
        CHANNELS 3 Zrotation Yrotation Xrotation
        JOINT Chest
        {
          OFFSET 7.594027 1e-06 0.0
          CHANNELS 3 Zrotation Yrotation Xrotation
          JOINT Neck1
          {
            OFFSET 26.313086 -0.460272 -0.181672
            CHANNELS 3 Zrotation Yrotation Xrotation
            JOINT Neck2
            {
              OFFSET 8.045911 0.0 0.0
              CHANNELS 3 Zrotation Yrotation Xrotation
              JOINT Head
              {
                OFFSET 6.432774 0.0 0.0
                CHANNELS 3 Zrotation Yrotation Xrotation
                JOINT HeadEnd
                {
                  OFFSET 16.169773 0.06451 0.00362
                  CHANNELS 3 Zrotation Yrotation Xrotation
                }
                JOINT Jaw
                {
                  OFFSET 0.108741 3.12938 0.002639
                  CHANNELS 3 Zrotation Yrotation Xrotation
                }
                JOINT LeftEye
                {
                  OFFSET 4.45173 8.166359 3.206392
                  CHANNELS 3 Zrotation Yrotation Xrotation
                }
                JOINT RightEye
                {
                  OFFSET 4.436895 8.135758 -3.222429
                  CHANNELS 3 Zrotation Yrotation Xrotation
                }
              }
            }
          }
          JOINT LeftShoulder
          {
            OFFSET 23.218927 5.195579 1.621656
            CHANNELS 3 Zrotation Yrotation Xrotation
            JOINT LeftArm
            {
              OFFSET 15.902118 2e-06 -2e-06
              CHANNELS 3 Zrotation Yrotation Xrotation
              JOINT LeftForeArm
              {
                OFFSET 28.739307 0.0 -1e-06
                CHANNELS 3 Zrotation Yrotation Xrotation
                JOINT LeftHand
                {
                  OFFSET 27.093981 -4e-06 0.0
                  CHANNELS 3 Zrotation Yrotation Xrotation
                  JOINT LeftHandThumb1
                  {
                    OFFSET 2.276781 3.380274 0.83384
                    CHANNELS 3 Zrotation Yrotation Xrotation
                    JOINT LeftHandThumb2
                    {
                      OFFSET 4.705309 -1e-06 -1e-06
                      CHANNELS 3 Zrotation Yrotation Xrotation
                      JOINT LeftHandThumb3
                      {
                        OFFSET 2.798515 0.0 3e-06
                        CHANNELS 3 Zrotation Yrotation Xrotation
                        JOINT LeftHandThumbEnd
                        {
                          OFFSET 3.180793 4e-06 -4e-06
                          CHANNELS 3 Zrotation Yrotation Xrotation
                        }
                      }
                    }
                  }
                  JOINT LeftHandIndex1
                  {
                    OFFSET 3.247786 2.352677 0.137192
                    CHANNELS 3 Zrotation Yrotation Xrotation
                    JOINT LeftHandIndex2
                    {
                      OFFSET 6.367095 1e-06 0.0
                      CHANNELS 3 Zrotation Yrotation Xrotation
                      JOINT LeftHandIndex3
                      {
                        OFFSET 3.662364 0.0 0.0
                        CHANNELS 3 Zrotation Yrotation Xrotation
                        JOINT LeftHandIndex4
                        {
                          OFFSET 2.329242 4e-06 -4e-06
                          CHANNELS 3 Zrotation Yrotation Xrotation
                          JOINT LeftHandIndexEnd
                          {
                            OFFSET 2.767823 1e-06 0.0
                            CHANNELS 3 Zrotation Yrotation Xrotation
                          }
                        }
                      }
                    }
                  }
                  JOINT LeftHandMiddle1
                  {
                    OFFSET 3.163612 0.945023 -0.406112
                    CHANNELS 3 Zrotation Yrotation Xrotation
                    JOINT LeftHandMiddle2
                    {
                      OFFSET 6.276789 3e-06 0.0
                      CHANNELS 3 Zrotation Yrotation Xrotation
                      JOINT LeftHandMiddle3
                      {
                        OFFSET 4.35652 -1e-06 4e-06
                        CHANNELS 3 Zrotation Yrotation Xrotation
                        JOINT LeftHandMiddle4
                        {
                          OFFSET 2.996877 0.0 8e-06
                          CHANNELS 3 Zrotation Yrotation Xrotation
                          JOINT LeftHandMiddleEnd
                          {
                            OFFSET 2.323256 3e-06 -4e-06
                            CHANNELS 3 Zrotation Yrotation Xrotation
                          }
                        }
                      }
                    }
                  }
                  JOINT LeftHandRing1
                  {
                    OFFSET 2.882606 -0.309162 0.107445
                    CHANNELS 3 Zrotation Yrotation Xrotation
                    JOINT LeftHandRing2
                    {
                      OFFSET 6.033198 0.0 4e-06
                      CHANNELS 3 Zrotation Yrotation Xrotation
                      JOINT LeftHandRing3
                      {
                        OFFSET 4.350578 3e-06 0.0
                        CHANNELS 3 Zrotation Yrotation Xrotation
                        JOINT LeftHandRing4
                        {
                          OFFSET 2.651321 2e-06 -7e-06
                          CHANNELS 3 Zrotation Yrotation Xrotation
                          JOINT LeftHandRingEnd
                          {
                            OFFSET 1.937663 1e-06 -4e-06
                            CHANNELS 3 Zrotation Yrotation Xrotation
                          }
                        }
                      }
                    }
                  }
                  JOINT LeftHandPinky1
                  {
                    OFFSET 2.865315 -1.525436 0.575687
                    CHANNELS 3 Zrotation Yrotation Xrotation
                    JOINT LeftHandPinky2
                    {
                      OFFSET 5.54936 1e-06 -8e-06
                      CHANNELS 3 Zrotation Yrotation Xrotation
                      JOINT LeftHandPinky3
                      {
                        OFFSET 3.070974 0.0 -4e-06
                        CHANNELS 3 Zrotation Yrotation Xrotation
                        JOINT LeftHandPinky4
                        {
                          OFFSET 1.549672 1e-06 0.0
                          CHANNELS 3 Zrotation Yrotation Xrotation
                          JOINT LeftHandPinkyEnd
                          {
                            OFFSET 1.952123 0.0 0.0
                            CHANNELS 3 Zrotation Yrotation Xrotation
                          }
                        }
                      }
                    }
                  }
                }
              }
            }
          }
          JOINT RightShoulder
          {
            OFFSET 23.161716 5.296122 -1.380114
            CHANNELS 3 Zrotation Yrotation Xrotation
            JOINT RightArm
            {
              OFFSET -16.027195 -2e-06 1.1e-05
              CHANNELS 3 Zrotation Yrotation Xrotation
              JOINT RightForeArm
              {
                OFFSET -28.736639 4e-06 2e-06
                CHANNELS 3 Zrotation Yrotation Xrotation
                JOINT RightHand
                {
                  OFFSET -27.133619 6e-06 0.0
                  CHANNELS 3 Zrotation Yrotation Xrotation
                  JOINT RightHandThumb1
                  {
                    OFFSET -2.274328 -3.351035 -0.83067
                    CHANNELS 3 Zrotation Yrotation Xrotation
                    JOINT RightHandThumb2
                    {
                      OFFSET -4.703594 -3e-06 2e-06
                      CHANNELS 3 Zrotation Yrotation Xrotation
                      JOINT RightHandThumb3
                      {
                        OFFSET -2.794935 -4e-06 -3e-06
                        CHANNELS 3 Zrotation Yrotation Xrotation
                        JOINT RightHandThumbEnd
                        {
                          OFFSET -3.183852 4e-06 1e-06
                          CHANNELS 3 Zrotation Yrotation Xrotation
                        }
                      }
                    }
                  }
                  JOINT RightHandIndex1
                  {
                    OFFSET -3.253496 -2.33755 -0.127667
                    CHANNELS 3 Zrotation Yrotation Xrotation
                    JOINT RightHandIndex2
                    {
                      OFFSET -6.344434 0.0 0.0
                      CHANNELS 3 Zrotation Yrotation Xrotation
                      JOINT RightHandIndex3
                      {
                        OFFSET -3.654871 0.0 -8e-06
                        CHANNELS 3 Zrotation Yrotation Xrotation
                        JOINT RightHandIndex4
                        {
                          OFFSET -2.327586 -1e-06 0.0
                          CHANNELS 3 Zrotation Yrotation Xrotation
                          JOINT RightHandIndexEnd
                          {
                            OFFSET -2.770001 3e-06 8e-06
                            CHANNELS 3 Zrotation Yrotation Xrotation
                          }
                        }
                      }
                    }
                  }
                  JOINT RightHandMiddle1
                  {
                    OFFSET -3.168223 -0.944764 0.411762
                    CHANNELS 3 Zrotation Yrotation Xrotation
                    JOINT RightHandMiddle2
                    {
                      OFFSET -6.266691 -1e-06 -4e-06
                      CHANNELS 3 Zrotation Yrotation Xrotation
                      JOINT RightHandMiddle3
                      {
                        OFFSET -4.348901 0.0 0.0
                        CHANNELS 3 Zrotation Yrotation Xrotation
                        JOINT RightHandMiddle4
                        {
                          OFFSET -3.00024 2e-06 -4e-06
                          CHANNELS 3 Zrotation Yrotation Xrotation
                          JOINT RightHandMiddleEnd
                          {
                            OFFSET -2.321477 -4e-06 -4e-06
                            CHANNELS 3 Zrotation Yrotation Xrotation
                          }
                        }
                      }
                    }
                  }
                  JOINT RightHandRing1
                  {
                    OFFSET -2.885654 0.293261 -0.119232
                    CHANNELS 3 Zrotation Yrotation Xrotation
                    JOINT RightHandRing2
                    {
                      OFFSET -6.032835 -1e-06 -4e-06
                      CHANNELS 3 Zrotation Yrotation Xrotation
                      JOINT RightHandRing3
                      {
                        OFFSET -4.33881 0.0 -4e-06
                        CHANNELS 3 Zrotation Yrotation Xrotation
                        JOINT RightHandRing4
                        {
                          OFFSET -2.654903 -4e-06 -4e-06
                          CHANNELS 3 Zrotation Yrotation Xrotation
                          JOINT RightHandRingEnd
                          {
                            OFFSET -1.935122 0.0 4e-06
                            CHANNELS 3 Zrotation Yrotation Xrotation
                          }
                        }
                      }
                    }
                  }
                  JOINT RightHandPinky1
                  {
                    OFFSET -2.866241 1.503904 -0.60527
                    CHANNELS 3 Zrotation Yrotation Xrotation
                    JOINT RightHandPinky2
                    {
                      OFFSET -5.553177 -2e-06 0.0
                      CHANNELS 3 Zrotation Yrotation Xrotation
                      JOINT RightHandPinky3
                      {
                        OFFSET -3.062664 -1e-06 -4e-06
                        CHANNELS 3 Zrotation Yrotation Xrotation
                        JOINT RightHandPinky4
                        {
                          OFFSET -1.546529 2e-06 4e-06
                          CHANNELS 3 Zrotation Yrotation Xrotation
                          JOINT RightHandPinkyEnd
                          {
                            OFFSET -1.952341 0.0 -4e-06
                            CHANNELS 3 Zrotation Yrotation Xrotation
                          }
                        }
                      }
                    }
                  }
                }
              }
            }
          }
        }
      }
    }
    JOINT LeftLeg
    {
      OFFSET -8.443107 2.567604 10.043214
      CHANNELS 3 Zrotation Yrotation Xrotation
      JOINT LeftShin
      {
        OFFSET 43.229198 1e-06 -1e-06
        CHANNELS 3 Zrotation Yrotation Xrotation
        JOINT LeftFoot
        {
          OFFSET 42.298611 1e-06 1e-06
          CHANNELS 3 Zrotation Yrotation Xrotation
          JOINT LeftToeBase
          {
            OFFSET 14.165858 1e-06 0.0
            CHANNELS 3 Zrotation Yrotation Xrotation
            JOINT LeftToeEnd
            {
              OFFSET 6.7141 -0.234461 0.0
              CHANNELS 3 Zrotation Yrotation Xrotation
            }
          }
        }
      }
    }
    JOINT RightLeg
    {
      OFFSET -8.303923 2.592729 -10.047278
      CHANNELS 3 Zrotation Yrotation Xrotation
      JOINT RightShin
      {
        OFFSET -43.369682 0.0 1e-06
        CHANNELS 3 Zrotation Yrotation Xrotation
        JOINT RightFoot
        {
          OFFSET -42.260784 4e-06 2e-06
          CHANNELS 3 Zrotation Yrotation Xrotation
          JOINT RightToeBase
          {
            OFFSET -14.222245 -2e-06 -1e-06
            CHANNELS 3 Zrotation Yrotation Xrotation
            JOINT RightToeEnd
            {
              OFFSET -6.660062 0.232574 -2e-06
              CHANNELS 3 Zrotation Yrotation Xrotation
            }
          }
        }
      }
    }
  }
}
MOTION
Frames: 13
Frame Time: 0.5
0.0 0.0 0.0 0.0 -0.0 0.0 1.382762 99.186913 -5.971213 88.727005 7.471485 90.139282 -1.965033 1.676752 -0.14858 -11.48908 -0.034582 -0.194726 24.007238 -0.436562 -1.89967 24.624054 -4.582438 2.488715 -2.676169 -0.363867 2.014507 -27.099728 0.809208 1.88029 0.000471 -0.000128 5.3e-05 -0.048547 -0.003863 0.044554 -0.076447 0.027833 0.027991 -0.094158 -0.039586 0.06525 -131.975876 -67.577164 150.50087 34.626915 -54.959839 5.543051 30.528877 0.228774 -0.02606 -5.896777 4.400295 4.736001 17.654099 -26.306557 52.367855 -19.466333 -14.378959 29.367031 -0.003004 -8.775124 -0.000477 15.857725 -18.459114 6.396823 -0.616918 -1.796744 -3.889588 -4.801908 -11.055956 -2.936448 -0.002681 -20.999077 -0.000366 -5.033459 -25.044912 -4.029305 0.009181 0.0 -0.000266 -10.635708 -5.685791 -3.551182 10.581655 -17.945972 -3.124719 -0.001182 -13.827213 -0.009102 -0.509657 -31.229158 -4.009215 -11.829031 -60.281052 7.687996 -13.983684 -7.147142 -2.86116 13.772053 -8.414495 -3.233886 0.357912 -34.26236 0.774286 -0.944417 -17.77372 2.609202 -0.007356 0.002446 0.009371 -17.349758 -20.103886 -4.193042 21.750332 -1.639803 3.858958 0.001238 -6.352001 0.014399 -1.681522 -22.588078 -6.208752 0.0 -0.0 0.0 49.465961 -76.675705 147.246155 38.119034 -62.234089 -0.737882 26.507473 0.211759 0.046844 -10.359969 -7.727275 3.013242 22.218056 -20.36768 49.961163 -16.721094 -16.745283 28.480774 -0.001676 -12.709616 -0.004012 15.53798 -18.316624 3.359035 -0.106996 -1.51502 -4.270119 -5.043503 -5.611251 -2.953998 0.001117 -11.02146 0.002451 -6.110223 -15.901549 -3.854139 -0.00405 -2e-06 -0.011278 -10.292663 -5.676638 -4.320383 11.042295 -11.305015 -2.375519 -1.380721 -14.222743 -6.33726 -0.622811 -26.922565 -3.807712 -4.339351 -50.342682 -3.535745 -13.716205 -7.358614 -3.707816 18.148392 -14.05455 -3.244607 0.007065 -18.777946 -0.010706 -0.431157 -8.466507 2.558553 0.00543 0.001453 0.002526 -15.937331 -20.08503 -5.46343 30.434763 -7.187616 1.737213 0.007373 -8.162475 0.007317 -1.853742 -22.860554 -6.182775 -0.001995 0.006717 -0.004399 -173.911072 -7.854894 -10.463271 15.748506 -0.088419 0.349634 -82.153297 -0.825799 -11.344394 -6.545025 1.472737 2.079916 -0.995335 -0.001136 0.000511 4.575356 -3.901505 -4.59026 14.583591 -0.076493 0.263414 -80.039154 -1.524302 -5.840775 -6.009872 0.655875 1.646591 -0.99397 0.000934 -0.000125 
0.0 0.0 0.0 0.0 -0.0 0.0 1.407785 99.28418 -6.280677 88.671417 6.956051 89.359085 -1.575641 1.815961 -0.015106 -11.376683 0.023484 -0.065102 24.294571 -0.295618 -1.840551 24.817442 -4.668195 2.640715 -2.629972 -0.432974 2.029526 -27.18268 0.483709 1.969774 -0.000118 0.000586 0.001687 -0.020028 0.000485 0.048342 -0.126506 0.030941 0.036318 -0.138977 -0.037067 0.0592 -131.600006 -67.580696 150.337082 35.027992 -54.728859 4.914002 30.983845 0.267947 -0.018462 -5.986588 4.520961 5.023602 17.590528 -26.271738 52.403046 -19.397547 -14.390055 29.397524 0.007809 -8.765833 -0.011651 15.871003 -18.417822 6.363121 -0.604864 -1.780266 -3.897243 -4.81255 -11.018129 -2.928998 -0.019364 -20.906118 0.004959 -5.028479 -24.968292 -4.039659 -0.012703 0.007632 0.006904 -10.617939 -5.675064 -3.563427 10.549543 -17.874149 -3.104241 -0.011197 -13.805778 0.012928 -0.515807 -31.151192 -4.015831 -11.636184 -59.891827 7.578691 -13.958571 -7.137469 -2.876727 13.739229 -8.363466 -3.214254 0.323631 -34.097263 0.777184 -0.956625 -17.691011 2.6317 0.002722 0.001836 -0.011987 -17.322803 -20.050434 -4.211372 21.723541 -1.620465 3.859743 -0.006264 -6.319055 0.00488 -1.70387 -22.537916 -6.174804 -1e-05 0.001728 -0.010059 49.744553 -77.023643 146.930161 39.800667 -61.981762 -3.030287 26.803047 0.375441 0.024916 -9.913834 -7.203384 3.327718 22.146217 -20.361341 49.92115 -16.673191 -16.727936 28.463865 -0.009249 -12.666154 0.015248 15.583826 -18.168938 3.27531 -0.106361 -1.511497 -4.291116 -5.029568 -5.605137 -2.952226 -0.003826 -11.002115 -0.008785 -6.103627 -15.914457 -3.845764 -0.003082 0.011666 0.003649 -10.269239 -5.677142 -4.348269 11.013644 -11.299419 -2.37142 -1.384482 -14.222143 -6.33862 -0.642015 -26.898802 -3.837415 -4.246743 -50.290455 -3.46 -13.690781 -7.36051 -3.729285 18.120434 -14.039059 -3.236405 -0.001123 -18.780352 -0.017211 -0.427958 -8.459229 2.564848 0.001438 0.001393 -0.011171 -15.889682 -20.086943 -5.501126 30.382376 -7.187831 1.728311 7.2e-05 -8.156392 0.006685 -1.860897 -22.853664 -6.159592 0.000138 -0.006772 0.001626 -174.309265 -7.639462 -10.411924 15.26205 -0.078796 0.322709 -81.688705 -1.577401 -11.375266 -6.241221 1.548225 2.089098 -0.993541 0.001169 -7.8e-05 3.772039 -3.969837 -4.285802 14.392168 -0.032067 0.156105 -79.714798 -0.876994 -5.503073 -5.891134 0.629659 1.646011 -0.990749 7.5e-05 0.000383 
0.0 0.0 0.0 0.0 -0.0 0.0 -3.330943 98.325432 -11.470917 89.486115 1.691192 89.840126 5.01793 3.148573 0.332242 -8.89754 0.235845 -0.009842 25.19239 0.139612 -2.044513 20.271797 -5.939824 2.897178 -2.663627 -0.37413 0.49268 -39.023521 -1.154749 1.759777 -0.000394 0.000296 0.001336 -0.040497 -0.006543 -0.023061 -0.18745 0.010084 -0.025343 -0.190139 -0.028456 -0.014535 -124.107971 -72.548157 144.295242 40.674881 -57.916378 -9.793688 41.04097 0.665861 0.076233 -5.218725 11.910933 0.689184 17.667107 -26.335592 52.428219 -19.457581 -14.396922 29.391333 0.001315 -8.772663 -0.007795 15.715072 -18.269987 6.437275 -0.600775 -1.789849 -3.895773 -4.80215 -11.046001 -2.931668 0.001215 -20.951025 0.008147 -5.004427 -24.995609 -4.03808 0.001384 -0.008392 0.004586 -10.624166 -5.694865 -3.571675 10.56421 -17.919029 -3.104439 0.000249 -13.82223 0.000527 -0.511585 -31.170382 -4.006314 -11.981975 -59.933189 8.052964 -13.977489 -7.148947 -2.879777 13.772619 -8.398725 -3.212837 0.340423 -34.190788 0.765131 -0.97394 -17.739571 2.630758 -0.003023 0.008852 -0.006656 -17.343155 -20.096178 -4.196281 21.75828 -1.638609 3.858757 0.002366 -6.333805 0.004795 -1.709652 -22.556107 -6.19588 0.003469 -0.0035 -0.00041 72.654434 -82.047516 124.130943 54.176025 -60.8937 -17.079069 35.758106 0.187926 -0.156419 -5.611718 -5.214548 0.921446 22.169205 -20.329018 49.91893 -16.671329 -16.722322 28.438505 -0.003373 -12.679152 0.003669 16.019686 -18.149437 2.857354 -0.110552 -1.512291 -4.284292 -5.034192 -5.606693 -2.948017 -0.000131 -11.002744 -0.000542 -6.088439 -15.865476 -3.856512 -0.000937 0.002319 0.002513 -10.284301 -5.681026 -4.353956 11.023094 -11.293686 -2.365903 -1.383058 -14.225755 -6.31296 -0.651193 -26.873411 -3.81836 -3.890495 -49.819782 -3.681741 -13.702044 -7.364573 -3.728775 18.118546 -14.025299 -3.23522 -0.003133 -18.745449 -0.00518 -0.434813 -8.421432 2.559956 0.002756 -0.004177 -0.003205 -15.916735 -20.089933 -5.491571 30.40803 -7.185022 1.72874 -0.003305 -8.164182 0.012301 -1.870847 -22.816965 -6.17127 0.005368 0.004496 -0.003157 169.777756 -10.046848 -3.645706 28.11079 -0.165106 0.122525 -79.926918 -4.487302 -10.524939 -6.830159 1.595992 2.15259 -0.995748 -0.003659 0.001413 -11.994164 -2.296938 -5.248183 27.795141 -0.050412 0.128073 -82.898323 -0.516037 -1.980236 -5.319844 0.639782 1.67429 -0.992827 -8.9e-05 0.000437 
0.0 0.0 0.0 0.0 -0.0 0.0 -8.937415 77.643669 -23.838459 91.236359 -7.76357 101.204659 15.123265 0.925133 0.215558 -2.966777 -0.30208 0.408573 29.098436 -2.110933 -3.155252 5.537054 -1.925569 2.597886 -2.674206 -0.769348 -1.195973 -44.467102 -1.439819 -0.405808 -0.003217 0.001449 -0.00668 -0.061347 0.031479 -0.070846 -0.048659 0.061068 -0.020969 -0.086998 0.005545 -0.144224 -153.528549 -83.998573 167.662231 39.866314 -46.738983 -21.834833 34.211948 -0.888989 -0.091271 1.9999 20.165514 -0.965809 17.641838 -26.332161 52.399887 -19.503601 -14.387862 29.422642 0.003442 -8.785797 0.001822 16.149403 -17.702915 6.175252 -0.609815 -1.798753 -3.883868 -4.805134 -11.062931 -2.934355 0.001216 -21.023037 -0.008193 -5.039513 -25.091263 -4.031625 -0.000418 -0.007065 0.001228 -10.632829 -5.695578 -3.554731 10.572192 -17.944626 -3.120888 0.002606 -13.841757 -0.006288 -0.495966 -31.240122 -4.035559 -11.329958 -60.654041 7.562285 -13.98211 -7.154865 -2.860949 13.77171 -8.407391 -3.223976 0.35249 -34.250118 0.759773 -0.955786 -17.751598 2.612842 0.004345 0.000676 -0.000941 -17.348299 -20.108105 -4.18154 21.762144 -1.640079 3.840336 -0.000216 -6.344945 0.008546 -1.6944 -22.607813 -6.201487 -0.002455 -0.006547 -0.000599 171.570435 -85.464645 18.349504 59.702534 -35.658298 -18.417246 62.880245 -0.585659 -0.309259 -0.819219 6.436678 10.403615 22.182726 -20.374538 49.940521 -16.690834 -16.737221 28.463257 0.000259 -12.69009 -0.000767 16.549215 -18.147705 2.364652 -0.108972 -1.512566 -4.28261 -5.031604 -5.608813 -2.955251 0.001699 -11.008852 0.006099 -6.098688 -15.87344 -3.840143 -0.00141 0.002662 0.002701 -10.282497 -5.682174 -4.345167 11.029406 -11.297312 -2.375419 -1.386151 -14.235923 -6.30549 -0.645818 -26.935469 -3.814969 -4.602115 -50.87085 -3.471262 -13.707417 -7.363796 -3.729877 18.127552 -14.051677 -3.23271 0.002261 -18.794159 0.002669 -0.442198 -8.461162 2.563013 -0.008612 -0.000768 -0.001277 -15.929248 -20.088945 -5.477994 30.420691 -7.192265 1.731506 -0.00853 -8.164161 0.001719 -1.859871 -22.879597 -6.171568 0.007543 0.005939 0.00449 127.222931 -0.263901 -8.708899 86.058426 0.037338 -0.118172 -109.190216 6.521308 0.492131 -6.786924 1.507921 2.132174 -0.995489 -0.001308 0.000545 -60.632267 -8.926549 -5.855931 85.991493 0.15776 -0.021523 -101.869667 -7.5024 0.509216 -5.507493 0.557391 1.633629 -0.993278 0.00014 0.002086 
0.0 0.0 0.0 0.0 -0.0 0.0 -5.905539 23.036808 -41.378178 89.753784 24.865513 100.913536 23.645153 2.127359 2.021845 2.627817 0.131438 2.51806 42.114574 -5.839332 0.518229 7.080322 -2.842238 2.0764 -2.633071 0.447734 1.462033 -40.224457 3.519088 -1.356847 -0.006273 -0.002823 0.006364 0.018839 0.022563 -0.015852 0.125967 0.054678 -0.024933 0.181276 -0.009281 -0.02914 -146.53653 -78.946877 162.913528 47.441292 -57.379765 -54.193607 30.150801 1.732598 0.471711 -5.11047 60.930286 -25.289579 17.573305 -26.294218 52.505951 -19.506004 -14.415119 29.442364 -0.010274 -8.764445 0.019385 14.385264 -18.285109 7.372167 -0.606913 -1.801572 -3.895574 -4.796132 -11.040178 -2.94869 -0.001939 -20.948677 -0.005193 -4.963994 -24.991722 -4.090794 -0.006773 -0.001479 0.001511 -10.631494 -5.68949 -3.567582 10.586515 -17.917826 -3.127641 -0.008324 -13.854925 -0.012304 -0.474121 -31.192234 -4.062623 -11.112767 -60.299198 7.447386 -13.993999 -7.165848 -2.884539 13.79871 -8.397699 -3.221805 0.370377 -34.213867 0.733286 -0.955212 -17.736063 2.605109 0.002764 -0.001623 -0.0 -17.328861 -20.094639 -4.217516 21.738142 -1.656376 3.842805 -0.001691 -6.329959 0.005622 -1.707652 -22.575914 -6.206739 0.000565 -0.007956 0.009914 -154.287308 -66.851158 -19.370836 50.004036 14.156069 8.171903 57.173393 2.222387 0.117544 2.437824 -3.647103 -0.45933 22.173792 -20.374153 49.927654 -16.715508 -16.777887 28.482952 -0.001461 -12.70572 0.005326 16.928394 -16.332911 2.917009 -0.095993 -1.507329 -4.266741 -5.030325 -5.615378 -2.954051 0.005773 -11.012179 0.003386 -6.111712 -15.869569 -3.835424 -0.000927 -0.002182 -0.000266 -10.268055 -5.679894 -4.325329 11.035329 -11.291633 -2.377026 -1.390911 -14.240009 -6.313941 -0.643447 -26.931877 -3.810575 -4.849216 -52.477985 -1.661746 -13.696399 -7.359148 -3.69496 18.158522 -14.039921 -3.258687 -0.003414 -18.785963 0.02153 -0.425367 -8.45959 2.543736 -0.00655 -0.003163 0.000813 -15.929851 -20.090689 -5.431793 30.471294 -7.171111 1.724244 -0.005172 -8.172288 -0.000837 -1.865182 -22.870625 -6.193499 0.003043 0.005426 0.00831 74.168259 -5.306371 -23.912907 153.30162 0.38783 0.445906 -91.339394 -13.05563 13.388771 -5.379126 1.4354 2.047099 -1.002988 0.001705 0.002357 -112.965469 -17.534306 1.976668 142.920105 -0.116096 0.370816 -75.764343 -7.785033 4.02245 -2.602162 0.513576 1.66191 -0.998494 -0.001344 -0.000273 
0.0 0.0 0.0 0.0 -0.0 0.0 -3.654949 10.823774 -59.046371 89.462013 58.749676 90.17746 22.221443 0.54682 -0.210043 0.971427 0.620469 1.729181 40.518028 -0.314891 0.613623 30.008661 -1.757522 2.899629 -2.273322 -0.895483 -0.40257 -32.745842 -1.652358 0.849802 -0.000114 0.001734 -0.001734 0.034289 0.010104 0.06009 0.120901 0.019653 0.107851 0.192348 -0.015585 -0.018772 -40.678165 -75.657875 54.213932 39.440109 -65.825272 -19.861195 95.403252 -0.713483 0.789434 6.850091 47.437393 3.056655 17.68586 -26.34379 52.474884 -19.486212 -14.409879 29.422071 -0.002524 -8.781799 -0.000657 16.967226 -18.402912 5.671464 -0.613965 -1.77876 -3.896095 -4.803145 -11.051829 -2.933099 0.015462 -20.992899 -0.007121 -5.017626 -25.045071 -4.038093 -0.001988 0.006144 -0.0 -10.649427 -5.680569 -3.5731 10.604073 -17.932194 -3.111021 0.010365 -13.826897 -0.001416 -0.48379 -31.197664 -4.009286 -12.407341 -60.818054 7.970877 -14.003356 -7.138436 -2.88335 13.803836 -8.406464 -3.213721 0.371488 -34.236195 0.764441 -0.944391 -17.728712 2.627063 0.000533 -0.009025 -0.005884 -17.359766 -20.100874 -4.216969 21.795656 -1.643473 3.876539 0.000242 -6.352458 0.00306 -1.690043 -22.629864 -6.208864 0.002636 -0.002477 0.000464 -159.02005 -75.349335 -10.354406 60.778336 9.155254 -0.266796 56.770237 1.186585 1.449188 -2.692833 -6.193483 2.452285 22.27186 -20.347065 49.964001 -16.70743 -16.759872 28.461044 0.002682 -12.706804 -0.010638 17.641678 -17.782841 2.129089 -0.087241 -1.510471 -4.285773 -5.055983 -5.60911 -2.951812 -0.002943 -11.013708 0.004451 -6.118337 -15.87757 -3.862365 -0.000731 0.001462 0.001096 -10.288737 -5.679451 -4.346757 11.032016 -11.291987 -2.371462 -1.395413 -14.229284 -6.332592 -0.639359 -26.893461 -3.824772 -5.993786 -51.210327 -2.779682 -13.708647 -7.372825 -3.721957 18.135117 -14.035251 -3.248151 -0.006133 -18.791679 0.003183 -0.428981 -8.448007 2.541029 0.00733 -0.005065 0.00976 -15.942824 -20.105715 -5.496452 30.448492 -7.19233 1.764811 -0.006955 -8.168733 -0.007254 -1.8603 -22.87265 -6.172408 -0.000584 0.001962 -0.002705 94.607246 -15.199161 -18.541134 122.325394 0.650278 0.119187 -58.263325 -20.663465 3.53083 -5.756701 1.770924 2.011968 -0.999121 0.000572 0.008455 -89.44677 -15.681172 -1.480769 114.420998 0.065044 0.987911 -47.983192 1.374436 0.976609 -6.100214 0.494056 1.714343 -0.997202 0.002209 -0.000142 
0.0 0.0 0.0 0.0 -0.0 0.0 -4.662349 11.312449 -55.514412 87.79763 52.188343 86.658173 21.064672 0.579084 -0.494467 1.629106 -0.12208 0.412682 37.194256 0.511801 -0.631957 12.952076 -2.000401 2.667742 -2.36159 -0.415567 0.049219 -35.150524 -1.437669 -0.727716 0.00406 0.000256 -9.1e-05 0.004311 0.000362 -0.023523 0.139132 0.047417 0.033524 0.116453 -0.063738 -0.100851 -19.078539 -80.506386 21.768738 72.924103 -1.97839 -4.779466 67.296875 0.965573 2.7467 11.541741 22.074852 4.590449 17.657658 -26.256027 52.44212 -19.471395 -14.396823 29.434423 0.001477 -8.799281 -0.001177 17.403238 -18.306219 5.554997 -0.593528 -1.793423 -3.89874 -4.812593 -11.047879 -2.942241 -0.001914 -20.975904 -0.014511 -5.028787 -25.052206 -4.042423 -0.009401 -0.003321 -0.023175 -10.637712 -5.688805 -3.568349 10.601386 -17.92078 -3.129222 0.006908 -13.823556 -0.011461 -0.472207 -31.171238 -4.083643 -12.722534 -61.476048 8.175325 -13.987997 -7.144141 -2.879802 13.780062 -8.398574 -3.221392 0.366696 -34.186058 0.735386 -0.931661 -17.704681 2.610601 -0.000733 -0.009242 0.000406 -17.35557 -20.094387 -4.22161 21.789494 -1.643601 3.876563 -0.005254 -6.339686 -0.007316 -1.692983 -22.572355 -6.20876 0.002015 0.0 -0.002785 -134.925766 -79.342842 -35.333214 57.002327 3.631703 0.734225 69.645988 1.813912 1.705791 -0.902928 4.166731 17.521595 22.212154 -20.348869 49.944885 -16.710424 -16.75308 28.468439 0.010464 -12.688452 -0.002754 16.178835 -18.518183 2.982234 -0.08317 -1.506928 -4.282655 -5.051325 -5.605374 -2.957982 0.004951 -11.018021 0.004693 -6.113461 -15.876671 -3.852147 0.008066 -0.006605 0.006674 -10.263501 -5.673031 -4.345416 11.020713 -11.306598 -2.380537 -1.373131 -14.217689 -6.313115 -0.615318 -26.901085 -3.852826 -5.075904 -50.334988 -3.049551 -13.695588 -7.359955 -3.726491 18.146931 -14.05945 -3.244084 -0.00294 -18.78133 -0.014344 -0.417806 -8.457673 2.54766 -0.005067 -0.010218 0.003158 -15.905836 -20.097115 -5.479338 30.407356 -7.170256 1.735763 0.008752 -8.159138 -0.008647 -1.867387 -22.836874 -6.145228 -0.002333 -0.004699 -0.001034 86.969437 -7.422901 -6.370942 116.60981 0.267531 0.336903 -40.734886 -7.02127 0.971277 -4.39747 1.504016 2.14097 -0.999413 0.00028 0.000372 -94.08757 -10.455222 2.020938 116.202339 -0.348366 0.28321 -38.817604 4.614672 5.353343 -3.903804 0.563267 1.605466 -1.001715 0.001028 0.000379 
0.0 0.0 0.0 0.0 -0.0 0.0 -5.024517 12.12182 -55.86351 89.437408 46.920341 89.567451 22.612885 0.005324 -0.334417 2.158817 -0.40113 0.27482 38.165325 -0.864742 -1.640551 10.096354 -1.088873 2.387033 -2.315729 -0.735886 -0.643546 -36.205719 -0.222368 -2.635644 3e-06 -0.000295 -0.00052 -0.023465 0.006346 -0.015428 0.12978 0.07497 0.046381 0.114124 -0.078851 -0.09697 0.378986 -83.87516 2.784246 74.189438 3.716552 3.672174 64.004669 0.218543 -0.380963 -0.141626 8.914121 -13.019872 17.671551 -26.31942 52.353928 -19.453115 -14.392435 29.366692 -0.007031 -8.756599 0.005372 15.453086 -17.865099 6.480383 -0.624143 -1.791829 -3.898017 -4.809162 -11.042283 -2.926146 0.012262 -20.982153 0.00831 -5.032014 -25.044695 -4.027753 -0.012153 -0.004429 -0.005844 -10.647536 -5.674592 -3.556723 10.585944 -17.916595 -3.104217 0.014887 -13.780852 0.006353 -0.497243 -31.158651 -4.041915 -11.74115 -59.514019 7.600004 -13.986734 -7.138367 -2.86606 13.781692 -8.409236 -3.223886 0.363629 -34.213234 0.792321 -0.97468 -17.730549 2.616082 -0.006134 -0.006393 0.009924 -17.34601 -20.078526 -4.199037 21.752964 -1.641502 3.876116 -0.004724 -6.339984 -0.009327 -1.696623 -22.54767 -6.158334 -0.008974 -0.004738 -0.011167 -135.597351 -80.238434 -35.667095 56.829895 3.149732 0.988189 76.318886 1.502788 0.792788 -1.29358 2.379833 18.989904 22.273031 -20.382309 49.990719 -16.739994 -16.765354 28.529816 0.00772 -12.716871 -0.013876 15.108585 -18.106127 3.219846 -0.104553 -1.510128 -4.287385 -5.056864 -5.618549 -2.96628 0.009125 -11.049365 0.00238 -6.1388 -15.920374 -3.848531 -0.009763 0.019254 -0.000561 -10.286407 -5.683976 -4.354986 11.039112 -11.3203 -2.376677 -1.396652 -14.278551 -6.347147 -0.625118 -26.980871 -3.820458 -5.285069 -49.575916 -2.952877 -13.721126 -7.371099 -3.735564 18.174541 -14.061684 -3.248882 0.00612 -18.830572 -0.010307 -0.424327 -8.479033 2.550129 -0.001742 -0.002816 -0.011794 -15.928211 -20.118547 -5.503346 30.456541 -7.218594 1.764536 0.014347 -8.171202 -0.008082 -1.841649 -22.924953 -6.200448 0.006409 0.012538 -0.00854 82.586433 -7.014996 -8.113904 115.058731 0.228656 0.242744 -39.78347 -6.286682 0.112163 -5.010961 1.496096 2.091007 -0.994354 0.000533 -0.00285 -99.102081 -13.136919 2.037431 115.636757 -0.344792 0.160719 -38.602699 4.299966 7.400123 -4.55267 0.534849 1.609178 -1.001243 0.000155 -0.001982 
0.0 0.0 0.0 0.0 -0.0 0.0 -4.476792 12.1319 -56.006641 89.753586 46.960869 90.079285 22.592188 0.160021 -0.305366 2.015633 -0.419316 0.343903 37.674141 -1.032324 -1.864033 10.323538 -1.142194 2.319757 -2.302013 -0.781523 -1.209655 -36.018051 -0.383511 -3.223498 0.000312 -0.001047 1.8e-05 -0.024152 -0.001832 0.018173 0.053807 0.085282 0.080486 0.047782 -0.103733 -0.0619 8.344658 -83.241318 -4.913914 72.839668 2.342224 0.694072 62.587051 0.00945 -0.130153 0.509868 8.520677 -10.723044 17.644381 -26.300095 52.340591 -19.44701 -14.373649 29.374451 0.019214 -8.745563 -0.003877 15.308915 -17.823105 6.627596 -0.604252 -1.79981 -3.891268 -4.784913 -11.03768 -2.934312 -0.023024 -20.962435 0.000977 -4.985676 -24.997822 -4.044071 -0.002397 -0.001047 0.002746 -10.603181 -5.688666 -3.565537 10.549121 -17.908949 -3.112775 -0.007486 -13.820874 0.010825 -0.504863 -31.176321 -3.996354 -11.619396 -59.506336 7.544127 -13.965759 -7.149076 -2.878366 13.757312 -8.398075 -3.210109 0.321879 -34.194855 0.808262 -0.956464 -17.721573 2.616441 0.003214 0.000526 0.000335 -17.312181 -20.080967 -4.202971 21.709511 -1.637998 3.867055 0.000241 -6.322056 0.012613 -1.702033 -22.571943 -6.211197 0.014057 0.009361 0.008098 -135.766525 -80.013611 -35.034473 58.211853 2.365951 0.848257 75.003601 1.38591 0.398967 -3.41104 0.843721 15.82493 22.253315 -20.348679 49.935013 -16.69775 -16.742743 28.467331 -0.004738 -12.684188 -0.013051 15.749979 -18.251459 2.876613 -0.099875 -1.49354 -4.277614 -5.032337 -5.63448 -2.953499 -0.006765 -11.01757 0.002302 -6.107769 -15.902692 -3.835762 -0.005946 0.01295 -0.008358 -10.280038 -5.672738 -4.342721 11.030432 -11.300611 -2.363523 -1.389769 -14.238841 -6.325948 -0.631835 -26.928322 -3.832862 -5.284698 -50.091358 -3.082909 -13.694992 -7.350795 -3.724258 18.13447 -14.057855 -3.230893 0.01832 -18.771294 -0.012731 -0.430791 -8.456932 2.5502 0.002943 0.000102 0.000469 -15.914095 -20.088549 -5.481194 30.431505 -7.204381 1.755311 -0.007924 -8.164366 -0.000959 -1.86007 -22.873007 -6.151289 0.003112 0.005289 -0.010222 82.994835 -6.625813 -9.222314 114.666229 0.21085 0.119535 -39.769047 -6.9686 -0.035193 -4.941947 1.504953 2.113205 -0.998069 -7.5e-05 -0.001199 -99.112762 -14.243409 2.559559 115.345383 -0.368827 0.136669 -38.337715 4.744005 8.150431 -4.65745 0.520238 1.62646 -0.994306 -0.00024 0.000506 
0.0 0.0 0.0 0.0 -0.0 0.0 -4.372406 12.127423 -55.798088 89.540863 47.087944 89.68737 22.566839 0.196882 -0.408525 2.02554 -0.528431 0.301808 37.57584 -1.36792 -1.726166 10.777706 -1.375898 2.38656 -2.303931 -0.746609 -1.266322 -35.389038 0.275269 -3.138658 0.000558 3e-06 0.000153 -0.022531 -0.012452 -0.039842 0.008438 0.06732 0.008987 0.008664 -0.105503 -0.112475 9.155721 -83.293602 -5.645343 73.092133 2.59171 1.495075 62.395679 -0.232333 -0.073102 0.428579 8.203403 -10.496862 17.622854 -26.28677 52.372284 -19.455091 -14.35883 29.403564 0.004495 -8.782516 -0.006903 15.362838 -17.768578 6.56467 -0.631077 -1.795471 -3.88288 -4.782723 -11.042361 -2.93259 -0.011475 -20.947248 -0.005036 -5.022407 -25.015106 -4.018133 0.00188 -0.000166 -0.006233 -10.651449 -5.679499 -3.556153 10.570055 -17.917507 -3.102664 0.004132 -13.811393 0.003976 -0.464315 -31.136494 -4.031417 -11.552303 -59.395653 7.552336 -13.980241 -7.150091 -2.873927 13.738631 -8.380588 -3.204716 0.354331 -34.189598 0.762772 -0.949423 -17.707441 2.609119 0.001279 -0.002946 0.009827 -17.358412 -20.079197 -4.199011 21.748495 -1.658301 3.868409 -0.001236 -6.32296 0.008879 -1.673229 -22.571054 -6.193467 -0.008242 0.003982 -0.00445 -138.666718 -79.417824 -32.19239 59.091602 1.550102 1.348635 74.692688 1.025551 0.399848 -4.236812 1.513299 16.895704 22.203085 -20.348829 49.916393 -16.677137 -16.697111 28.423012 0.008418 -12.677312 -0.00357 15.406713 -18.364872 3.086618 -0.095265 -1.512816 -4.257283 -5.034396 -5.608086 -2.961057 -0.010286 -11.005554 -0.00275 -6.103638 -15.892368 -3.833448 -0.009271 -0.001667 -0.006438 -10.271866 -5.669041 -4.332294 11.013586 -11.299546 -2.374886 -1.38022 -14.22229 -6.300927 -0.61046 -26.896536 -3.829618 -5.060935 -49.817284 -3.146482 -13.690211 -7.359327 -3.714989 18.101738 -14.032365 -3.221166 0.001285 -18.749939 0.009068 -0.438908 -8.460905 2.551326 -0.001367 0.004774 -0.007922 -15.886223 -20.077583 -5.475449 30.353289 -7.194126 1.738576 -0.003444 -8.160646 0.001298 -1.842921 -22.805952 -6.162774 -0.002699 -0.006185 0.009235 82.941147 -6.824062 -9.122644 115.046532 0.210655 0.143711 -39.904625 -6.433699 -0.964732 -4.996685 1.532119 2.114947 -0.992039 0.000861 -0.005053 -99.091881 -14.239774 2.424029 115.567184 -0.356773 0.128956 -38.244602 5.205961 8.364879 -4.788219 0.533526 1.628659 -1.000176 -0.000306 -0.000141 
0.0 0.0 0.0 0.0 -0.0 0.0 -4.198803 12.199533 -55.242062 89.723953 46.841164 90.001518 22.610041 0.25139 -0.390322 2.004242 -0.47248 0.22258 37.455498 -1.128181 -1.646694 10.877968 -1.146728 2.347187 -2.320965 -0.805192 -1.0498 -35.717857 0.502981 -3.165828 0.000512 0.000117 0.000625 -0.016789 0.005344 0.013908 0.027609 0.061216 0.06816 0.031525 -0.066151 -0.061663 12.716252 -84.445892 -8.836382 73.167488 3.007021 1.849488 62.609867 -0.113347 -0.145013 -0.205367 7.955581 -10.922455 17.648159 -26.351461 52.523735 -19.48819 -14.390083 29.457729 -0.018086 -8.769179 0.010389 15.163172 -17.720514 6.558758 -0.601665 -1.803914 -3.914884 -4.81263 -11.055235 -2.92841 0.012163 -20.986063 -0.019269 -5.041996 -25.066374 -4.05142 -0.000176 0.002251 0.00189 -10.613866 -5.701371 -3.570082 10.565228 -17.943155 -3.143324 0.011898 -13.827054 0.000499 -0.483472 -31.227814 -4.069936 -11.389096 -59.31049 7.332604 -13.981133 -7.164553 -2.876748 13.781887 -8.413229 -3.237787 0.363984 -34.240284 0.761612 -0.936046 -17.73793 2.621732 -0.003145 -0.007316 0.009405 -17.355312 -20.135185 -4.207807 21.794041 -1.640861 3.853232 -0.008568 -6.346116 0.001285 -1.705891 -22.633158 -6.203525 0.002054 -0.002 -0.000809 -138.591461 -80.159813 -32.459049 59.398903 1.785071 2.119838 74.05098 1.545457 -0.061404 -3.856195 1.968529 17.403328 22.186766 -20.411726 50.041737 -16.7234 -16.758091 28.528244 -0.003805 -12.696376 0.007881 15.119338 -18.484207 3.256878 -0.08582 -1.516964 -4.286083 -5.041688 -5.614975 -2.961489 -0.009457 -11.032623 -0.011537 -6.075436 -15.934387 -3.855044 -0.003071 0.018319 0.007794 -10.272757 -5.678204 -4.35643 11.035919 -11.322696 -2.371389 -1.367126 -14.279384 -6.342803 -0.61066 -26.958525 -3.831623 -5.180136 -49.902317 -3.174997 -13.692483 -7.368915 -3.728277 18.147398 -14.056884 -3.251211 0.016291 -18.798445 -0.022905 -0.419091 -8.450945 2.567658 -0.004929 -0.006289 -0.002488 -15.892658 -20.111086 -5.495331 30.399506 -7.200339 1.738611 0.017533 -8.156949 -0.01175 -1.839629 -22.856287 -6.190929 -0.000802 0.005135 0.010766 82.397598 -6.37901 -9.386423 115.849022 0.187645 0.145766 -40.393021 -6.506641 -0.575293 -5.29925 1.539689 2.083113 -0.992648 -0.000384 0.004025 -99.796898 -14.630846 2.987599 116.449715 -0.358768 0.078235 -38.718143 5.626973 8.528776 -5.220429 0.559559 1.642471 -0.990955 -9.4e-05 0.000681 
0.0 0.0 0.0 0.0 -0.0 0.0 -3.957472 12.344265 -55.347347 89.665497 46.801437 89.969498 22.495752 0.350601 -0.323679 1.892146 -0.469585 0.263742 37.272095 -1.166203 -1.812356 10.58475 -0.723517 2.154876 -2.333792 -0.773915 -0.961138 -35.519745 0.246313 -3.354313 0.002987 0.000242 -0.001042 -0.010843 0.005597 0.012351 -0.010402 0.080146 0.075489 -0.010768 -0.081916 -0.062075 14.382199 -84.204239 -10.567146 72.567177 2.075965 1.007173 62.852959 0.055719 -0.004968 0.780394 8.245895 -10.042753 17.611359 -26.360373 52.44323 -19.447823 -14.403324 29.4279 0.000498 -8.773608 0.003321 15.362569 -17.741796 6.614197 -0.618063 -1.793035 -3.885443 -4.785554 -11.03688 -2.927225 -0.015668 -20.965702 0.005221 -5.034503 -25.017426 -4.013007 0.004828 -0.001223 0.004289 -10.620341 -5.683819 -3.560848 10.559495 -17.926548 -3.111058 -0.005205 -13.827799 -0.006025 -0.555398 -31.161564 -3.962846 -11.518849 -59.294956 7.571 -13.970908 -7.145979 -2.861183 13.771188 -8.389542 -3.221972 0.323634 -34.203308 0.782915 -0.9658 -17.735416 2.610488 0.004227 0.007083 -0.008428 -17.32526 -20.089693 -4.186136 21.724188 -1.631915 3.859427 -0.004774 -6.343385 -0.002376 -1.686212 -22.605286 -6.198873 -0.002615 0.005557 0.011113 -138.92894 -80.512207 -32.213219 59.905685 1.47095 2.261518 74.113274 1.334394 0.249724 -4.072392 1.660569 15.129856 22.203379 -20.415354 50.006561 -16.723053 -16.781355 28.506882 0.012744 -12.697623 -0.002205 15.180724 -18.474257 3.129404 -0.111598 -1.515146 -4.284985 -5.033581 -5.61543 -2.95607 -0.000397 -10.994673 0.013593 -6.108967 -15.928799 -3.85056 -0.000579 0.018262 0.011119 -10.276487 -5.674491 -4.331971 11.02087 -11.294118 -2.394537 -1.38103 -14.234205 -6.325168 -0.63122 -26.910511 -3.815435 -4.991701 -50.017414 -3.2543 -13.699806 -7.357513 -3.716054 18.136667 -14.056448 -3.258544 -0.009751 -18.78532 0.016771 -0.427948 -8.455801 2.548769 -0.001242 0.009941 0.007765 -15.928701 -20.099657 -5.473397 30.44463 -7.197952 1.726909 -0.006233 -8.155605 0.007369 -1.83532 -22.829428 -6.184784 -0.001993 -0.007284 0.0 82.716293 -6.597547 -9.830116 115.645203 0.224026 0.114484 -40.530293 -6.58847 -0.529305 -5.512866 1.534596 2.096627 -1.002367 -0.000276 0.000726 -99.57338 -14.895511 3.026127 116.179344 -0.414853 0.001859 -38.695553 5.836243 8.803188 -5.366511 0.563722 1.642138 -0.997749 0.00038 0.000156 
0.0 0.0 0.0 0.0 -0.0 0.0 -3.435016 12.157393 -54.338688 89.768929 47.080746 90.166855 22.237753 0.187441 -0.570023 1.899237 -0.556509 0.389446 37.835564 -1.224183 -1.923508 11.194685 0.143527 2.525366 -2.251536 -0.767752 -1.275863 -35.474396 0.694514 -2.704247 0.002864 0.000613 0.000689 -0.027218 -0.019927 -0.044022 0.088893 0.037026 0.0346 0.075479 -0.09298 -0.146002 13.263887 -84.434784 -8.690618 72.62429 2.445919 -0.10367 63.010128 0.101501 -0.563274 1.1815 8.010468 -10.251462 17.696466 -26.288908 52.324203 -19.450201 -14.369065 29.362556 -0.008929 -8.771705 -0.010006 15.308181 -17.79051 6.671264 -0.591982 -1.800171 -3.889401 -4.820905 -11.037044 -2.919271 -0.021892 -20.963373 0.001188 -5.03611 -25.029739 -4.015986 0.010779 0.006362 0.007562 -10.619356 -5.68007 -3.55038 10.552779 -17.920607 -3.101136 0.009868 -13.821695 -0.003047 -0.484495 -31.167311 -4.050047 -11.812931 -59.326675 7.761601 -13.963352 -7.154258 -2.876024 13.748599 -8.388402 -3.205259 0.34687 -34.180408 0.777383 -0.955679 -17.715961 2.605077 0.002432 0.000417 0.001841 -17.343946 -20.096272 -4.196852 21.749628 -1.634618 3.87088 0.009926 -6.345667 -0.002753 -1.692761 -22.573092 -6.177356 -0.005203 -0.009351 0.0 -139.789856 -80.549255 -30.692118 60.348076 2.540238 3.829119 73.738647 1.53055 0.382085 -4.429536 3.522526 17.383965 22.217669 -20.327856 49.873081 -16.683657 -16.7388 28.449799 -0.003538 -12.687567 -0.000799 15.792555 -18.492565 3.178779 -0.080231 -1.511085 -4.275695 -5.036267 -5.603582 -2.951758 0.007451 -11.010318 0.000444 -6.125737 -15.897285 -3.85516 0.011326 -0.014574 0.001459 -10.261875 -5.672715 -4.337091 11.019095 -11.296799 -2.361603 -1.37079 -14.234859 -6.329504 -0.627724 -26.931007 -3.810414 -4.813714 -50.286671 -3.072823 -13.676084 -7.354107 -3.72066 18.124714 -14.030334 -3.242408 -0.001358 -18.803593 0.021994 -0.427783 -8.454489 2.546305 0.003769 0.004463 0.007538 -15.893162 -20.090702 -5.472 30.416891 -7.181097 1.738837 0.001863 -8.153214 0.005218 -1.858169 -22.840944 -6.151842 0.00495 0.004136 -0.009174 82.2677 -6.481408 -10.695434 117.142662 0.233683 0.2279 -41.132843 -6.864296 -1.047633 -5.958824 1.641446 2.130261 -0.995484 -0.000659 0.00257 -100.431389 -15.805739 3.956884 117.639313 -0.366906 -0.064835 -39.011238 6.799056 8.979807 -6.217039 0.644814 1.645386 -0.99484 0.000641 -2e-05
